start=new Date('2022-03-21T00:00:00.000Z').valueOf();
sats=[{"SEMIMAJOR_AXIS":"6725.125","COUNTRY_CODE":"US","MEAN_ELEMENT_THEORY":"SGP4","RA_OF_ASC_NODE":"83.5684","REF_FRAME":"TEME","REV_AT_EPOCH":"200","LAUNCH_DATE":"2022-03-09","GP_ID":"199270854","TIME_SYSTEM":"UTC","SITE":"AFETR","EPOCH":"2022-03-20T22:00:01.999584","MEAN_MOTION_DOT":"-0.00875483","RCS_SIZE":"LARGE","PERIOD":"91.477","CENTER_NAME":"EARTH","EPHEMERIS_TYPE":"0","OBJECT_ID":"2022-025K","ELEMENT_SET_NO":"999","ECCENTRICITY":"0.00009510","FILE":"3367488","TLE_LINE2":"2 51965  53.2172  83.5684 0000951  93.3618 294.2004 15.74172051  2003","INCLINATION":"53.2172","MEAN_ANOMALY":"294.2004","OBJECT_NAME":"STARLINK-3696","DECAY_DATE":null,"CLASSIFICATION_TYPE":"U","TLE_LINE1":"1 51965U 22025K   22079.91668981 -.00875483  00000-0 -66294-2 0  9991","PERIAPSIS":"346.351","APOAPSIS":"347.630","ARG_OF_PERICENTER":"93.3618","NORAD_CAT_ID":"51965","MEAN_MOTION":"15.74172051","MEAN_MOTION_DDOT":"0.0000000000000","BSTAR":"-0.00662940000000","OBJECT_TYPE":"PAYLOAD"},{"DECAY_DATE":null,"OBJECT_NAME":"STARLINK-3699","MEAN_ANOMALY":"328.5649","INCLINATION":"53.2172","TLE_LINE2":"2 51966  53.2172  83.5615 0001040  62.6009 328.5649 15.74289182  2001","ECCENTRICITY":"0.00010400","FILE":"3367488","ELEMENT_SET_NO":"999","EPHEMERIS_TYPE":"0","OBJECT_ID":"2022-025L","CENTER_NAME":"EARTH","OBJECT_TYPE":"PAYLOAD","BSTAR":"-0.00659150000000","MEAN_MOTION_DDOT":"0.0000000000000","NORAD_CAT_ID":"51966","MEAN_MOTION":"15.74289182","ARG_OF_PERICENTER":"62.6009","APOAPSIS":"347.356","TLE_LINE1":"1 51966U 22025L   22079.91668981 -.00875017  00000-0 -65915-2 0  9994","PERIAPSIS":"345.957","CLASSIFICATION_TYPE":"U","REV_AT_EPOCH":"200","REF_FRAME":"TEME","RA_OF_ASC_NODE":"83.5615","MEAN_ELEMENT_THEORY":"SGP4","COUNTRY_CODE":"US","SEMIMAJOR_AXIS":"6724.792","PERIOD":"91.470","RCS_SIZE":"LARGE","MEAN_MOTION_DOT":"-0.00875017","EPOCH":"2022-03-20T22:00:01.999584","SITE":"AFETR","TIME_SYSTEM":"UTC","GP_ID":"199271185","LAUNCH_DATE":"2022-03-09"},{"PERIOD":"91.474","RCS_SIZE":"MEDIUM","EPOCH":"2022-03-20T22:00:01.999584","MEAN_MOTION_DOT":"-0.00875621","SITE":"AFETR","TIME_SYSTEM":"UTC","GP_ID":"199270744","LAUNCH_DATE":"2022-03-09","REV_AT_EPOCH":"200","MEAN_ELEMENT_THEORY":"SGP4","RA_OF_ASC_NODE":"83.5660","REF_FRAME":"TEME","COUNTRY_CODE":"US","SEMIMAJOR_AXIS":"6725.012","OBJECT_TYPE":"PAYLOAD","BSTAR":"-0.00661900000000","MEAN_MOTION_DDOT":"0.0000000000000","MEAN_MOTION":"15.74211966","NORAD_CAT_ID":"51967","ARG_OF_PERICENTER":"90.5767","PERIAPSIS":"346.230","TLE_LINE1":"1 51967U 22025M   22079.91668981 -.00875621  00000-0 -66190-2 0  9992","APOAPSIS":"347.524","CLASSIFICATION_TYPE":"U","OBJECT_NAME":"STARLINK-3695","DECAY_DATE":null,"MEAN_ANOMALY":"298.1883","INCLINATION":"53.2172","TLE_LINE2":"2 51967  53.2172  83.5660 0000962  90.5767 298.1883 15.74211966  2002","FILE":"3367488","ECCENTRICITY":"0.00009620","ELEMENT_SET_NO":"999","OBJECT_ID":"2022-025M","EPHEMERIS_TYPE":"0","CENTER_NAME":"EARTH"},{"LAUNCH_DATE":"2022-03-09","GP_ID":"199270964","TIME_SYSTEM":"UTC","SITE":"AFETR","EPOCH":"2022-03-20T22:00:01.999584","MEAN_MOTION_DOT":"-0.00874148","RCS_SIZE":"MEDIUM","PERIOD":"91.467","SEMIMAJOR_AXIS":"6724.662","COUNTRY_CODE":"US","MEAN_ELEMENT_THEORY":"SGP4","RA_OF_ASC_NODE":"83.5591","REF_FRAME":"TEME","REV_AT_EPOCH":"200","CLASSIFICATION_TYPE":"U","PERIAPSIS":"345.836","TLE_LINE1":"1 51968U 22025N   22079.91668981 -.00874148  00000-0 -65712-2 0  9995","APOAPSIS":"347.218","ARG_OF_PERICENTER":"65.6449","MEAN_MOTION":"15.74334729","NORAD_CAT_ID":"51968","MEAN_MOTION_DDOT":"0.0000000000000","BSTAR":"-0.00657120000000","OBJECT_TYPE":"PAYLOAD","CENTER_NAME":"EARTH","OBJECT_ID":"2022-025N","EPHEMERIS_TYPE":"0","ELEMENT_SET_NO":"999","ECCENTRICITY":"0.00010270","FILE":"3367488","TLE_LINE2":"2 51968  53.2172  83.5591 0001027  65.6449 326.7017 15.74334729  2009","MEAN_ANOMALY":"326.7017","INCLINATION":"53.2172","OBJECT_NAME":"STARLINK-3681","DECAY_DATE":null},{"OBJECT_TYPE":"PAYLOAD","BSTAR":"-0.00661560000000","MEAN_MOTION_DDOT":"0.0000000000000","NORAD_CAT_ID":"51969","MEAN_MOTION":"15.74234451","ARG_OF_PERICENTER":"59.9772","APOAPSIS":"347.533","TLE_LINE1":"1 51969U 22025P   22079.91668981 -.00876024  00000-0 -66156-2 0  9994","PERIAPSIS":"346.092","CLASSIFICATION_TYPE":"U","DECAY_DATE":null,"OBJECT_NAME":"STARLINK-3680","MEAN_ANOMALY":"329.3830","INCLINATION":"53.2172","TLE_LINE2":"2 51969  53.2172  83.5649 0001072  59.9772 329.3830 15.74234451  2002","ECCENTRICITY":"0.00010720","FILE":"3367488","ELEMENT_SET_NO":"999","EPHEMERIS_TYPE":"0","OBJECT_ID":"2022-025P","CENTER_NAME":"EARTH","PERIOD":"91.473","RCS_SIZE":"MEDIUM","EPOCH":"2022-03-20T22:00:01.999584","MEAN_MOTION_DOT":"-0.00876024","TIME_SYSTEM":"UTC","SITE":"AFETR","GP_ID":"199270523","LAUNCH_DATE":"2022-03-09","REV_AT_EPOCH":"200","REF_FRAME":"TEME","RA_OF_ASC_NODE":"83.5649","MEAN_ELEMENT_THEORY":"SGP4","COUNTRY_CODE":"US","SEMIMAJOR_AXIS":"6724.948"},{"REV_AT_EPOCH":"200","MEAN_ELEMENT_THEORY":"SGP4","RA_OF_ASC_NODE":"83.5567","REF_FRAME":"TEME","COUNTRY_CODE":"US","SEMIMAJOR_AXIS":"6724.539","PERIOD":"91.465","RCS_SIZE":"MEDIUM","EPOCH":"2022-03-20T22:00:01.999584","MEAN_MOTION_DOT":"-0.00873866","SITE":"AFETR","TIME_SYSTEM":"UTC","GP_ID":"199271075","LAUNCH_DATE":"2022-03-09","OBJECT_NAME":"STARLINK-3677","DECAY_DATE":null,"MEAN_ANOMALY":"338.5344","INCLINATION":"53.2172","TLE_LINE2":"2 51970  53.2172  83.5567 0001117  54.9952 338.5344 15.74377750  2000","ECCENTRICITY":"0.00011170","FILE":"3367488","ELEMENT_SET_NO":"999","EPHEMERIS_TYPE":"0","OBJECT_ID":"2022-025Q","CENTER_NAME":"EARTH","OBJECT_TYPE":"PAYLOAD","BSTAR":"-0.00655630000000","MEAN_MOTION_DDOT":"0.0000000000000","NORAD_CAT_ID":"51970","MEAN_MOTION":"15.74377750","ARG_OF_PERICENTER":"54.9952","TLE_LINE1":"1 51970U 22025Q   22079.91668981 -.00873866  00000-0 -65563-2 0  9998","PERIAPSIS":"345.653","APOAPSIS":"347.156","CLASSIFICATION_TYPE":"U"},{"EPHEMERIS_TYPE":"0","OBJECT_ID":"2022-025R","ELEMENT_SET_NO":"999","CENTER_NAME":"EARTH","MEAN_ANOMALY":"306.1047","INCLINATION":"53.2172","DECAY_DATE":null,"OBJECT_NAME":"STARLINK-3669","ECCENTRICITY":"0.00009710","FILE":"3367488","TLE_LINE2":"2 51971  53.2172  83.5625 0000971  84.4548 306.1047 15.74273404  2004","APOAPSIS":"347.355","TLE_LINE1":"1 51971U 22025R   22079.91668981 -.00874716  00000-0 -65937-2 0  9999","PERIAPSIS":"346.049","ARG_OF_PERICENTER":"84.4548","CLASSIFICATION_TYPE":"U","BSTAR":"-0.00659370000000","OBJECT_TYPE":"PAYLOAD","MEAN_MOTION":"15.74273404","NORAD_CAT_ID":"51971","MEAN_MOTION_DDOT":"0.0000000000000","SEMIMAJOR_AXIS":"6724.837","REF_FRAME":"TEME","RA_OF_ASC_NODE":"83.5625","MEAN_ELEMENT_THEORY":"SGP4","REV_AT_EPOCH":"200","COUNTRY_CODE":"US","GP_ID":"199270412","SITE":"AFETR","TIME_SYSTEM":"UTC","LAUNCH_DATE":"2022-03-09","PERIOD":"91.471","MEAN_MOTION_DOT":"-0.00874716","EPOCH":"2022-03-20T22:00:01.999584","RCS_SIZE":"MEDIUM"},{"PERIAPSIS":"345.584","TLE_LINE1":"1 51972U 22025S   22079.91668981 -.00873502  00000-0 -65423-2 0  9992","APOAPSIS":"347.004","ARG_OF_PERICENTER":"62.7881","CLASSIFICATION_TYPE":"U","BSTAR":"-0.00654230000000","OBJECT_TYPE":"PAYLOAD","NORAD_CAT_ID":"51972","MEAN_MOTION":"15.74416642","MEAN_MOTION_DDOT":"0.0000000000000","EPHEMERIS_TYPE":"0","OBJECT_ID":"2022-025S","ELEMENT_SET_NO":"999","CENTER_NAME":"EARTH","INCLINATION":"53.2172","MEAN_ANOMALY":"331.9304","OBJECT_NAME":"STARLINK-3671","DECAY_DATE":null,"FILE":"3367488","ECCENTRICITY":"0.00010560","TLE_LINE2":"2 51972  53.2172  83.5544 0001056  62.7881 331.9304 15.74416642  2004","GP_ID":"199270634","SITE":"AFETR","TIME_SYSTEM":"UTC","LAUNCH_DATE":"2022-03-09","PERIOD":"91.462","EPOCH":"2022-03-20T22:00:01.999584","MEAN_MOTION_DOT":"-0.00873502","RCS_SIZE":"LARGE","SEMIMAJOR_AXIS":"6724.429","MEAN_ELEMENT_THEORY":"SGP4","RA_OF_ASC_NODE":"83.5544","REF_FRAME":"TEME","REV_AT_EPOCH":"200","COUNTRY_CODE":"US"},{"CLASSIFICATION_TYPE":"U","APOAPSIS":"347.239","PERIAPSIS":"345.688","TLE_LINE1":"1 51973U 22025T   22079.91668981 -.00873936  00000-0 -65627-2 0  9990","ARG_OF_PERICENTER":"49.6630","MEAN_MOTION":"15.74357106","NORAD_CAT_ID":"51973","MEAN_MOTION_DDOT":"0.0000000000000","BSTAR":"-0.00656270000000","OBJECT_TYPE":"PAYLOAD","CENTER_NAME":"EARTH","EPHEMERIS_TYPE":"0","OBJECT_ID":"2022-025T","ELEMENT_SET_NO":"999","FILE":"3367488","ECCENTRICITY":"0.00011530","TLE_LINE2":"2 51973  53.2172  83.5578 0001153  49.6630 343.2735 15.74357106  2009","MEAN_ANOMALY":"343.2735","INCLINATION":"53.2172","DECAY_DATE":null,"OBJECT_NAME":"STARLINK-3679","LAUNCH_DATE":"2022-03-09","GP_ID":"199270855","SITE":"AFETR","TIME_SYSTEM":"UTC","EPOCH":"2022-03-20T22:00:01.999584","MEAN_MOTION_DOT":"-0.00873936","RCS_SIZE":"LARGE","PERIOD":"91.466","SEMIMAJOR_AXIS":"6724.598","COUNTRY_CODE":"US","REF_FRAME":"TEME","RA_OF_ASC_NODE":"83.5578","MEAN_ELEMENT_THEORY":"SGP4","REV_AT_EPOCH":"200"},{"RCS_SIZE":"MEDIUM","MEAN_MOTION_DOT":"-0.00458975","EPOCH":"2022-03-20T22:00:01.999584","PERIOD":"90.936","LAUNCH_DATE":"2022-03-09","SITE":"AFETR","TIME_SYSTEM":"UTC","GP_ID":"199271186","COUNTRY_CODE":"US","REV_AT_EPOCH":"200","MEAN_ELEMENT_THEORY":"SGP4","RA_OF_ASC_NODE":"83.2741","REF_FRAME":"TEME","SEMIMAJOR_AXIS":"6698.613","MEAN_MOTION_DDOT":"0.0000000000000","MEAN_MOTION":"15.83526863","NORAD_CAT_ID":"51974","OBJECT_TYPE":"PAYLOAD","BSTAR":"-0.00216070000000","CLASSIFICATION_TYPE":"U","ARG_OF_PERICENTER":"87.7449","TLE_LINE1":"1 51974U 22025U   22079.91668981 -.00458975  00000-0 -21607-2 0  9993","PERIAPSIS":"319.754","APOAPSIS":"321.202","TLE_LINE2":"2 51974  53.2172  83.2741 0001081  87.7449  92.0771 15.83526863  2007","ECCENTRICITY":"0.00010810","FILE":"3367488","OBJECT_NAME":"STARLINK-3672","DECAY_DATE":null,"MEAN_ANOMALY":"92.0771","INCLINATION":"53.2172","CENTER_NAME":"EARTH","ELEMENT_SET_NO":"999","EPHEMERIS_TYPE":"0","OBJECT_ID":"2022-025U"}];
